OBJECT_NAME,OBJECT_ID,EPOCH,MEAN_MOTION,ECCENTRICITY,INCLINATION,RA_OF_ASC_NODE,ARG_OF_PERICENTER,MEAN_ANOMALY,EPHEMERIS_TYPE,CLASSIFICATION_TYPE,NORAD_CAT_ID,ELEMENT_SET_NO,REV_AT_EPOCH,BSTAR,MEAN_MOTION_DOT,MEAN_MOTION_DDOT
GLOBALSTAR M069,2007-020C,2026-07-12T00:31:23.635776,12.23472136,.0001749,52.0008,181.8340,203.5350,195.4068,0,U,31573,999,88184,.18354E-3,-.73E-6,0
GLOBALSTAR M072,2007-020D,2026-07-11T23:42:49.236768,11.91658661,.0001645,51.9945,34.2189,29.1338,138.4439,0,U,31574,999,87793,.97318E-4,-.77E-6,0
GLOBALSTAR M066,2007-048C,2026-07-11T14:44:13.013664,12.30389084,.00056311,51.9610,347.7907,94.7566,346.3596,0,U,32265,999,86323,.29018063E-3,-.6E-6,0
GLOBALSTAR M079,2010-054A,2026-07-11T20:26:35.973600,12.62266403,.00011065,52.0050,33.5873,72.0671,35.0842,0,U,37188,999,72566,.489761E-6,-.104E-5,0
GLOBALSTAR M074,2010-054B,2026-07-11T23:11:25.129248,12.62262039,.0000871,52.0028,32.5003,88.9916,58.5530,0,U,37189,999,72628,.48106E-4,-.95E-6,0
GLOBALSTAR M076,2010-054C,2026-07-11T23:54:39.455136,12.62262229,.0001094,52.0042,32.6145,84.7807,79.1794,0,U,37190,999,72600,.80489E-4,-.89E-6,0
GLOBALSTAR M077,2010-054D,2026-07-11T04:56:04.572672,11.67547721,.00023403,51.9950,118.3324,217.9589,313.2859,0,U,37191,999,72394,-.21220364E-3,-.9E-6,0
GLOBALSTAR M075,2010-054E,2026-07-12T02:02:20.042016,12.62267762,.0000704,51.9949,74.3846,60.3305,87.1797,0,U,37192,999,72508,-.98916E-5,-.106E-5,0
GLOBALSTAR M073,2010-054F,2026-07-11T18:13:22.962720,12.62266858,.0001091,52.0080,349.4956,91.6766,13.6072,0,U,37193,999,72703,-.2351738E-5,-.104E-5,0
GLOBALSTAR M083,2011-033A,2026-07-12T05:26:50.780832,12.62264013,.0000834,51.9871,296.2678,102.6370,270.1984,0,U,37739,999,69611,.84315E-4,-.89E-6,0
GLOBALSTAR M088,2011-033B,2026-07-12T01:08:07.584864,12.62269410,.00001,52.0186,203.3016,156.9399,237.7264,0,U,37740,999,69163,.12258E-3,-.82E-6,0
GLOBALSTAR M091,2011-033C,2026-07-11T23:33:07.928064,12.62264257,.0000348,51.9975,166.4303,16.4669,18.9343,0,U,37741,999,69241,.36939E-5,-.103E-5,0
GLOBALSTAR M085,2011-033D,2026-07-12T03:34:42.297024,12.62264339,.0000722,52.0122,117.2336,37.0398,101.0784,0,U,37742,999,69294,-.5473E-4,-.114E-5,0
GLOBALSTAR M081,2011-033E,2026-07-12T04:13:36.093216,12.62265311,.0000602,51.9951,119.5590,50.3546,90.3914,0,U,37743,999,69309,-.11255E-3,-.124E-5,0
GLOBALSTAR M089,2011-033F,2026-07-12T01:22:36.488064,12.62267549,.0000669,51.9933,74.0749,86.0364,55.9244,0,U,37744,999,69392,-.1687E-4,-.107E-5,0
GLOBALSTAR M084,2011-080A,2026-07-11T08:01:02.931744,12.62267887,.00009392,52.0028,303.7724,123.2364,270.2173,0,U,38040,999,67181,.36683377E-4,-.97E-6,0
GLOBALSTAR M080,2011-080B,2026-07-11T15:18:41.543712,12.62257312,.00003518,52.0064,304.5731,79.9966,25.0463,0,U,38041,999,67197,.87781052E-4,-.88E-6,0
GLOBALSTAR M082,2011-080C,2026-07-11T11:52:09.105312,12.62264040,.00002246,52.0064,260.5143,107.7506,355.0535,0,U,38042,999,67266,.13160487E-3,-.8E-6,0
GLOBALSTAR M092,2011-080D,2026-07-11T14:55:16.377312,12.62267684,.00008215,52.0104,350.5237,97.9552,342.3151,0,U,38043,999,67113,.70164808E-4,-.91E-6,0
GLOBALSTAR M090,2011-080E,2026-07-10T05:44:52.489824,12.62253056,.00004514,52.0114,258.2983,107.2704,288.2798,0,U,38044,999,67262,.12811834E-3,-.81E-6,0
GLOBALSTAR M086,2011-080F,2026-07-12T03:46:27.289056,12.62287700,.0001566,51.9881,252.3489,107.5659,270.3720,0,U,38045,999,67281,.13497E-3,-.8E-6,0
GLOBALSTAR M097,2013-005A,2026-07-11T22:44:24.907200,12.62271437,.0000344,52.0024,167.9625,35.7259,324.3631,0,U,39072,999,62003,-.11064E-4,-.106E-5,0
GLOBALSTAR M093,2013-005B,2026-07-11T08:47:40.535232,12.62266337,.00005581,52.0084,163.0872,38.9573,321.1334,0,U,39073,999,61991,.35000661E-4,-.97E-6,0
GLOBALSTAR M094,2013-005C,2026-07-11T20:11:36.678336,12.62264123,.00009191,51.9959,75.7345,58.7700,301.3257,0,U,39074,999,62158,-.37089734E-4,-.11E-5,0
GLOBALSTAR M096,2013-005D,2026-07-10T04:36:33.913152,12.62265688,.00006289,52.0063,129.5750,32.6639,327.4266,0,U,39075,999,62029,-.12179593E-4,-.106E-5,0
GLOBALSTAR M078,2013-005E,2026-07-12T01:34:27.466752,12.62260125,.0000758,51.9843,207.8490,328.5209,31.5612,0,U,39076,999,61915,.11342E-3,-.83E-6,0
GLOBALSTAR M095,2013-005F,2026-07-12T00:18:51.700896,12.62264165,.0000341,52.0053,205.6478,9.4769,350.6104,0,U,39077,999,61900,.14189E-3,-.78E-6,0
GLOBALSTAR M087,2022-064A,2026-07-11T15:07:38.325216,12.62269310,.0000936,52.0016,348.0370,80.7858,279.3115,0,U,52888,999,19422,.1005843E-5,-.104E-5,0
